VICTUS HAZE PUMA        
1 69646U 26142A   26198.28484869  .00002209  00000+0  10157-3 0  9990
2 69646  97.4460  95.5636 0026410 259.4735 100.3525 15.21130484  4240
HOKUSHIN-1              
1 69648U 98067YH  26199.44996975  .00015603  00000+0  26992-3 0  9998
2 69648  51.6322 145.0811 0006144 341.4323  18.6441 15.51112993  4509
STARLINK-37656          
1 69649U 26143A   26199.57525810  .00022813  00000+0  41965-3 0  9993
2 69649  97.2851 243.4906 0000550  18.4108 341.7163 15.49206159  5404
STARLINK-37646          
1 69650U 26143B   26198.40359773 -.00159329  00000+0 -30305-2 0  9999
2 69650  97.2850 242.4838 0003494 139.4005 220.7507 15.48770998  5233
STARLINK-37749          
1 69651U 26143C   26199.57300905  .00015533  00000+0  28661-3 0  9991
2 69651  97.2847 243.6477 0000939 109.3625 250.7728 15.49197876  5414
STARLINK-37819          
1 69652U 26143D   26198.09895882  .00037410  00000+0  68551-3 0  9991
2 69652  97.2815 242.1313 0001683  91.4316 268.7128 15.49219289  5188
STARLINK-37729          
1 69653U 26143E   26199.58335648 -.02355214  00000+0 -21612-1 0  9990
2 69653  97.2851 244.1773 0001737  93.4871 104.2849 15.71296270  5509
STARLINK-37838          
1 69654U 26143F   26199.55497108  .00022737  00000+0  41824-3 0  9994
2 69654  97.2833 243.6713 0000606  36.8369 323.2923 15.49208270  5419
STARLINK-37884          
1 69655U 26143G   26199.58335648 -.02414545  00000+0 -66984-1 0  9996
2 69655  97.3028 243.5984 0001873 117.9171 158.8794 15.40540870  5509
STARLINK-37876          
1 69656U 26143H   26199.58335648  .00057801  00000+0  15919-2 0  9994
2 69656  97.2839 243.6843 0001153  97.7773   9.2037 15.36946752  5400
STARLINK-37784          
1 69657U 26143J   26199.06872889  .00035171  00000+0  64465-3 0  9998
2 69657  97.2837 243.1099 0000872 101.0730 259.0619 15.49225127  5261
STARLINK-37851          
1 69658U 26143K   26198.07193549  .00020222  00000+0  37230-3 0  9999
2 69658  97.2843 242.1702 0000622  94.0044 266.1279 15.49205906  5119
STARLINK-37229          
1 69659U 26143L   26199.58335648 -.02905687  00000+0 -84775-1 0  9990
2 69659  97.2856 243.6451 0001791  76.2125 285.3140 15.39105525  5442
STARLINK-37556          
1 69660U 26143M   26199.58335648  .00046190  00000+0  12743-2 0  9990
2 69660  97.2845 243.6142 0001176  97.4835 216.9135 15.36951940  5440
STARLINK-37867          
1 69661U 26143N   26199.58335648  .00057105  00000+0  17608-2 0  9994
2 69661  97.2841 243.6537 0002164  59.8356 341.1998 15.33390955  5407
STARLINK-37852          
1 69662U 26143P   26199.07284147  .00032958  00000+0  60442-3 0  9990
2 69662  97.2818 243.1026 0001403 100.1647 259.9763 15.49221628  5265
STARLINK-37554          
1 69663U 26143Q   26199.58335648  .00057360  00000+0  15799-2 0  9998
2 69663  97.2845 243.6379 0001612 104.2264 266.2463 15.36944658  5443
STARLINK-37830          
1 69664U 26143R   26199.58335648 -.03609693  00000+0 -10194+0 0  9997
2 69664  97.2843 243.6280 0001616 117.2808 206.6722 15.40311331  5396
STARLINK-37837          
1 69665U 26143S   26199.07366775  .00010188  00000+0  28381-3 0  9998
2 69665  97.2839 243.1034 0000707  83.4688 276.6638 15.36980990  5261
STARLINK-37943          
1 69666U 26143T   26199.12972323  .00014642  00000+0  27025-3 0  9990
2 69666  97.2842 243.1794 0001381  84.4121 275.7287 15.49201992  5274
STARLINK-37941          
1 69667U 26143U   26199.58335648 -.02710928  00000+0 -69510-1 0  9991
2 69667  97.2845 243.6707 0001765  75.7023 346.5427 15.43350001  5405
STARLINK-37930          
1 69668U 26143V   26198.08308824  .00029225  00000+0  53610-3 0  9997
2 69668  97.2839 242.1534 0001166 117.7877 242.3492 15.49238300  5116
STARLINK-37945          
1 69669U 26143W   26198.07018358  .00021140  00000+0  38917-3 0  9998
2 69669  97.2808 242.1687 0000806  71.0791 289.0547 15.49200166  5117
STARLINK-37948          
1 69670U 26143X   26199.08697009  .00035430  00000+0  64943-3 0  9993
2 69670  97.2849 243.0873 0000671 273.6425  86.4750 15.49222813  5269
STARLINK-37949          
1 69671U 26143Y   26199.12716244  .00033274  00000+0  61059-3 0  9991
2 69671  97.2832 243.1814 0000474 279.8491  80.2706 15.49203170  5279
STARLINK-37946          
1 69672U 26143Z   26199.11323165  .00029501  00000+0  54154-3 0  9993
2 69672  97.2832 243.2013 0002307  87.2247 272.9268 15.49215311  5272
TJS-26A                 
1 69674U 26144A   26199.35847094 -.00000356  00000+0  00000+0 0  9999
2 69674   6.9442 323.2334 0004133 349.3771 220.1519  1.00271900   251
STARLINK-38005          
1 69677U 26145A   26199.54366920  .00215058  00000+0  14010-2 0  9993
2 69677  97.2835  46.5416 0001207 114.8686 245.2705 15.75283787  3709
STARLINK-38009          
1 69678U 26145B   26199.54190980  .00212009  00000+0  13827-2 0  9993
2 69678  97.2837  46.5448 0001342 112.3279 247.8129 15.75266910  3705
